FLOCK 4BE-3             
1 60561U 24149CX  26198.19178891  .00009903  00000+0  23089-3 0  9993
2 60561  97.3691 282.4088 0005192 162.8394 197.3030 15.42435373106969
FLOCK 4BE-19            
1 60563U 24149CZ  26198.17705980  .00015504  00000+0  32242-3 0  9993
2 60563  97.3740 284.0880 0006120 169.3185 190.8196 15.45712356107050
FLOCK 4G-8              
1 62613U 25009E   26198.16951525  .00005378  00000+0  18628-3 0  9994
2 62613  97.4002 280.0579 0004254 185.0405 175.0794 15.30265072 83501
FLOCK 4G-13             
1 62621U 25009N   26198.16541955  .00050419  00000+0  92443-3 0  9998
2 62621  97.3946 282.0662 0006694 192.9075 167.2006 15.49115861 83634
FLOCK 4G-9              
1 62622U 25009P   26198.19447674  .00004755  00000+0  17397-3 0  9992
2 62622  97.3956 278.9312 0004282 197.1564 162.9532 15.28529236 83440
FLOCK 4G-7              
1 62624U 25009R   26198.15409459  .00005418  00000+0  18981-3 0  9996
2 62624  97.3939 279.3114 0002798 176.2778 183.8484 15.29897785 83483
FLOCK 4G-12             
1 62625U 25009S   26198.21489544  .00005889  00000+0  20666-3 0  9992
2 62625  97.4018 279.9231 0004367 181.8167 178.3058 15.29797560 83494
FLOCK 4G-11             
1 62629U 25009W   26197.80717857  .00006203  00000+0  21685-3 0  9994
2 62629  97.3921 279.0734 0002855 179.7732 180.3510 15.29902892 83440
FLOCK 4G-26             
1 62633U 25009AA  26198.21293997  .00006447  00000+0  22394-3 0  9997
2 62633  97.4013 280.0831 0003851 171.8899 188.2404 15.30099371 83509
FLOCK 4G-28             
1 62634U 25009AB  26198.17178557  .00004842  00000+0  14363-3 0  9991
2 62634  97.4025 282.8429 0002293 157.9983 202.1360 15.35300991 83688
FLOCK 4G-24             
1 62637U 25009AE  26198.02766333  .00005738  00000+0  19782-3 0  9998
2 62637  97.4020 280.2043 0003887 160.6360 199.5029 15.30388487 83491
FLOCK 4G-3              
1 62639U 25009AG  26197.75981401  .00006558  00000+0  22918-3 0  9990
2 62639  97.4022 279.6441 0003426 166.1371 193.9964 15.29894270 83420
FLOCK 4G-27             
1 62641U 25009AJ  26198.17191244  .00005578  00000+0  19571-3 0  9990
2 62641  97.3931 279.4002 0002749 164.1260 196.0067 15.29830216 83488
FLOCK 4G-29             
1 62642U 25009AK  26197.76475067  .00005292  00000+0  18554-3 0  9996
2 62642  97.4018 279.6087 0003583 162.4310 197.7055 15.29878039 83429
FLOCK 4G-22             
1 62645U 25009AN  26198.04494128  .00005939  00000+0  20845-3 0  9994
2 62645  97.4004 279.9217 0003139 157.3673 202.7706 15.29794778 83480
FLOCK 4G-25             
1 62646U 25009AP  26197.75679814  .00006174  00000+0  21503-3 0  9993
2 62646  97.4013 279.7141 0002520 159.0983 201.0361 15.30028960 83441
