{"fetched_at":"2026-07-17T17:37:55.179Z","source":"https://celestrak.org/NORAD/elements/gp.php?GROUP=planet&FORMAT=JSON","constellation":"superdove","records":[{"OBJECT_NAME":"FLOCK 4BE-3","OBJECT_ID":"2024-149CX","EPOCH":"2026-07-17T04:36:10.561824","CLASSIFICATION_TYPE":"U","MEAN_MOTION":15.42435373,"ECCENTRICITY":0.00051925,"INCLINATION":97.3691,"RA_OF_ASC_NODE":282.4088,"ARG_OF_PERICENTER":162.8394,"MEAN_ANOMALY":197.303,"EPHEMERIS_TYPE":0,"NORAD_CAT_ID":60561,"ELEMENT_SET_NO":999,"REV_AT_EPOCH":10696,"BSTAR":0.00023088503,"MEAN_MOTION_DOT":0.00009903,"MEAN_MOTION_DDOT":0},{"OBJECT_NAME":"FLOCK 4BE-19","OBJECT_ID":"2024-149CZ","EPOCH":"2026-07-17T04:14:57.966720","CLASSIFICATION_TYPE":"U","MEAN_MOTION":15.45712356,"ECCENTRICITY":0.00061208,"INCLINATION":97.374,"RA_OF_ASC_NODE":284.088,"ARG_OF_PERICENTER":169.3185,"MEAN_ANOMALY":190.8196,"EPHEMERIS_TYPE":0,"NORAD_CAT_ID":60563,"ELEMENT_SET_NO":999,"REV_AT_EPOCH":10705,"BSTAR":0.00032241582,"MEAN_MOTION_DOT":0.00015504,"MEAN_MOTION_DDOT":0},{"OBJECT_NAME":"FLOCK 4G-8","OBJECT_ID":"2025-009E","EPOCH":"2026-07-17T04:04:06.117600","CLASSIFICATION_TYPE":"U","MEAN_MOTION":15.30265072,"ECCENTRICITY":0.00042546,"INCLINATION":97.4002,"RA_OF_ASC_NODE":280.0579,"ARG_OF_PERICENTER":185.0405,"MEAN_ANOMALY":175.0794,"EPHEMERIS_TYPE":0,"NORAD_CAT_ID":62613,"ELEMENT_SET_NO":999,"REV_AT_EPOCH":8350,"BSTAR":0.00018628089,"MEAN_MOTION_DOT":0.00005378,"MEAN_MOTION_DDOT":0},{"OBJECT_NAME":"FLOCK 4G-13","OBJECT_ID":"2025-009N","EPOCH":"2026-07-17T03:58:12.249120","CLASSIFICATION_TYPE":"U","MEAN_MOTION":15.49115861,"ECCENTRICITY":0.00066947,"INCLINATION":97.3946,"RA_OF_ASC_NODE":282.0662,"ARG_OF_PERICENTER":192.9075,"MEAN_ANOMALY":167.2006,"EPHEMERIS_TYPE":0,"NORAD_CAT_ID":62621,"ELEMENT_SET_NO":999,"REV_AT_EPOCH":8363,"BSTAR":0.00092442674,"MEAN_MOTION_DOT":0.00050419,"MEAN_MOTION_DDOT":0},{"OBJECT_NAME":"FLOCK 4G-9","OBJECT_ID":"2025-009P","EPOCH":"2026-07-17T04:40:02.790336","CLASSIFICATION_TYPE":"U","MEAN_MOTION":15.28529236,"ECCENTRICITY":0.00042824,"INCLINATION":97.3956,"RA_OF_ASC_NODE":278.9312,"ARG_OF_PERICENTER":197.1564,"MEAN_ANOMALY":162.9532,"EPHEMERIS_TYPE":0,"NORAD_CAT_ID":62622,"ELEMENT_SET_NO":999,"REV_AT_EPOCH":8344,"BSTAR":0.00017397151,"MEAN_MOTION_DOT":0.00004755,"MEAN_MOTION_DDOT":0},{"OBJECT_NAME":"FLOCK 4G-7","OBJECT_ID":"2025-009R","EPOCH":"2026-07-17T03:41:53.772576","CLASSIFICATION_TYPE":"U","MEAN_MOTION":15.29897785,"ECCENTRICITY":0.00027986,"INCLINATION":97.3939,"RA_OF_ASC_NODE":279.3114,"ARG_OF_PERICENTER":176.2778,"MEAN_ANOMALY":183.8484,"EPHEMERIS_TYPE":0,"NORAD_CAT_ID":62624,"ELEMENT_SET_NO":999,"REV_AT_EPOCH":8348,"BSTAR":0.00018981274,"MEAN_MOTION_DOT":0.00005418,"MEAN_MOTION_DDOT":0},{"OBJECT_NAME":"FLOCK 4G-12","OBJECT_ID":"2025-009S","EPOCH":"2026-07-17T05:09:26.966016","CLASSIFICATION_TYPE":"U","MEAN_MOTION":15.2979756,"ECCENTRICITY":0.00043671,"INCLINATION":97.4018,"RA_OF_ASC_NODE":279.9231,"ARG_OF_PERICENTER":181.8167,"MEAN_ANOMALY":178.3058,"EPHEMERIS_TYPE":0,"NORAD_CAT_ID":62625,"ELEMENT_SET_NO":999,"REV_AT_EPOCH":8349,"BSTAR":0.00020666178,"MEAN_MOTION_DOT":0.00005889,"MEAN_MOTION_DDOT":0},{"OBJECT_NAME":"FLOCK 4G-11","OBJECT_ID":"2025-009W","EPOCH":"2026-07-16T19:22:20.228448","CLASSIFICATION_TYPE":"U","MEAN_MOTION":15.29902892,"ECCENTRICITY":0.00028559,"INCLINATION":97.3921,"RA_OF_ASC_NODE":279.0734,"ARG_OF_PERICENTER":179.7732,"MEAN_ANOMALY":180.351,"EPHEMERIS_TYPE":0,"NORAD_CAT_ID":62629,"ELEMENT_SET_NO":999,"REV_AT_EPOCH":8344,"BSTAR":0.00021685017,"MEAN_MOTION_DOT":0.00006203,"MEAN_MOTION_DDOT":0},{"OBJECT_NAME":"FLOCK 4G-26","OBJECT_ID":"2025-009AA","EPOCH":"2026-07-17T05:06:38.013408","CLASSIFICATION_TYPE":"U","MEAN_MOTION":15.30099371,"ECCENTRICITY":0.00038518,"INCLINATION":97.4013,"RA_OF_ASC_NODE":280.0831,"ARG_OF_PERICENTER":171.8899,"MEAN_ANOMALY":188.2404,"EPHEMERIS_TYPE":0,"NORAD_CAT_ID":62633,"ELEMENT_SET_NO":999,"REV_AT_EPOCH":8350,"BSTAR":0.000223936,"MEAN_MOTION_DOT":0.00006447,"MEAN_MOTION_DDOT":0},{"OBJECT_NAME":"FLOCK 4G-28","OBJECT_ID":"2025-009AB","EPOCH":"2026-07-17T04:07:22.273248","CLASSIFICATION_TYPE":"U","MEAN_MOTION":15.35300991,"ECCENTRICITY":0.00022937,"INCLINATION":97.4025,"RA_OF_ASC_NODE":282.8429,"ARG_OF_PERICENTER":157.9983,"MEAN_ANOMALY":202.136,"EPHEMERIS_TYPE":0,"NORAD_CAT_ID":62634,"ELEMENT_SET_NO":999,"REV_AT_EPOCH":8368,"BSTAR":0.0001436283,"MEAN_MOTION_DOT":0.00004842,"MEAN_MOTION_DDOT":0},{"OBJECT_NAME":"FLOCK 4G-24","OBJECT_ID":"2025-009AE","EPOCH":"2026-07-17T00:39:50.111712","CLASSIFICATION_TYPE":"U","MEAN_MOTION":15.30388487,"ECCENTRICITY":0.00038877,"INCLINATION":97.402,"RA_OF_ASC_NODE":280.2043,"ARG_OF_PERICENTER":160.636,"MEAN_ANOMALY":199.5029,"EPHEMERIS_TYPE":0,"NORAD_CAT_ID":62637,"ELEMENT_SET_NO":999,"REV_AT_EPOCH":8349,"BSTAR":0.00019782242,"MEAN_MOTION_DOT":0.00005738,"MEAN_MOTION_DDOT":0},{"OBJECT_NAME":"FLOCK 4G-3","OBJECT_ID":"2025-009AG","EPOCH":"2026-07-16T18:14:07.930464","CLASSIFICATION_TYPE":"U","MEAN_MOTION":15.2989427,"ECCENTRICITY":0.00034267,"INCLINATION":97.4022,"RA_OF_ASC_NODE":279.6441,"ARG_OF_PERICENTER":166.1371,"MEAN_ANOMALY":193.9964,"EPHEMERIS_TYPE":0,"NORAD_CAT_ID":62639,"ELEMENT_SET_NO":999,"REV_AT_EPOCH":8342,"BSTAR":0.0002291754,"MEAN_MOTION_DOT":0.00006558,"MEAN_MOTION_DDOT":0},{"OBJECT_NAME":"FLOCK 4G-27","OBJECT_ID":"2025-009AJ","EPOCH":"2026-07-17T04:07:33.234816","CLASSIFICATION_TYPE":"U","MEAN_MOTION":15.29830216,"ECCENTRICITY":0.00027499,"INCLINATION":97.3931,"RA_OF_ASC_NODE":279.4002,"ARG_OF_PERICENTER":164.126,"MEAN_ANOMALY":196.0067,"EPHEMERIS_TYPE":0,"NORAD_CAT_ID":62641,"ELEMENT_SET_NO":999,"REV_AT_EPOCH":8348,"BSTAR":0.00019570819,"MEAN_MOTION_DOT":0.00005578,"MEAN_MOTION_DDOT":0},{"OBJECT_NAME":"FLOCK 4G-29","OBJECT_ID":"2025-009AK","EPOCH":"2026-07-16T18:21:14.457888","CLASSIFICATION_TYPE":"U","MEAN_MOTION":15.29878039,"ECCENTRICITY":0.00035838,"INCLINATION":97.4018,"RA_OF_ASC_NODE":279.6087,"ARG_OF_PERICENTER":162.431,"MEAN_ANOMALY":197.7055,"EPHEMERIS_TYPE":0,"NORAD_CAT_ID":62642,"ELEMENT_SET_NO":999,"REV_AT_EPOCH":8342,"BSTAR":0.00018553636,"MEAN_MOTION_DOT":0.00005292,"MEAN_MOTION_DDOT":0},{"OBJECT_NAME":"FLOCK 4G-22","OBJECT_ID":"2025-009AN","EPOCH":"2026-07-17T01:04:42.926592","CLASSIFICATION_TYPE":"U","MEAN_MOTION":15.29794778,"ECCENTRICITY":0.00031392,"INCLINATION":97.4004,"RA_OF_ASC_NODE":279.9217,"ARG_OF_PERICENTER":157.3673,"MEAN_ANOMALY":202.7706,"EPHEMERIS_TYPE":0,"NORAD_CAT_ID":62645,"ELEMENT_SET_NO":999,"REV_AT_EPOCH":8348,"BSTAR":0.00020845098,"MEAN_MOTION_DOT":0.00005939,"MEAN_MOTION_DDOT":0},{"OBJECT_NAME":"FLOCK 4G-25","OBJECT_ID":"2025-009AP","EPOCH":"2026-07-16T18:09:47.359296","CLASSIFICATION_TYPE":"U","MEAN_MOTION":15.3002896,"ECCENTRICITY":0.00025203,"INCLINATION":97.4013,"RA_OF_ASC_NODE":279.7141,"ARG_OF_PERICENTER":159.0983,"MEAN_ANOMALY":201.0361,"EPHEMERIS_TYPE":0,"NORAD_CAT_ID":62646,"ELEMENT_SET_NO":999,"REV_AT_EPOCH":8344,"BSTAR":0.00021503098,"MEAN_MOTION_DOT":0.00006174,"MEAN_MOTION_DDOT":0}]}
